{
    "links": {
        "self": "http://www.neowsapp.com/rest/v1/neo/3596039?api_key=iIulBulltgU6a56xZRHN4H3l9WmuAYTsLGpBGhQ2"
    },
    "id": "3596039",
    "neo_reference_id": "3596039",
    "name": "(2012 BF14)",
    "designation": "2012 BF14",
    "nasa_jpl_url": "http://ssd.jpl.nasa.gov/sbdb.cgi?sstr=3596039",
    "absolute_magnitude_h": 23.7,
    "estimated_diameter": {
        "kilometers": {
            "estimated_diameter_min": 0.0483676488,
            "estimated_diameter_max": 0.1081533507
        },
        "meters": {
            "estimated_diameter_min": 48.3676488219,
            "estimated_diameter_max": 108.1533506775
        },
        "miles": {
            "estimated_diameter_min": 0.0300542543,
            "estimated_diameter_max": 0.0672033557
        },
        "feet": {
            "estimated_diameter_min": 158.6865169607,
            "estimated_diameter_max": 354.8338390368
        }
    },
    "is_potentially_hazardous_asteroid": false,
    "close_approach_data": [
        {
            "close_approach_date": "2011-12-28",
            "close_approach_date_full": "2011-Dec-28 13:05",
            "epoch_date_close_approach": 1325077500000,
            "relative_velocity": {
                "kilometers_per_second": "11.6677891391",
                "kilometers_per_hour": "42004.0409008936",
                "miles_per_hour": "26099.6775253358"
            },
            "miss_distance": {
                "astronomical": "0.0764922777",
                "lunar": "29.7554960253",
                "kilometers": "11443081.815368499",
                "miles": "7110401.3263793262"
            },
            "orbiting_body": "Earth"
        }
    ],
    "orbital_data": {
        "orbit_id": "9",
        "orbit_determination_date": "2017-04-06 08:51:20",
        "first_observation_date": "2012-01-20",
        "last_observation_date": "2012-01-30",
        "data_arc_in_days": 10,
        "observations_used": 27,
        "orbit_uncertainty": "8",
        "minimum_orbit_intersection": ".0764395",
        "jupiter_tisserand_invariant": "3.356",
        "epoch_osculation": "2455952.5",
        "eccentricity": ".5917160519220198",
        "semi_major_axis": "2.257559876062566",
        "inclination": "8.063993650867882",
        "ascending_node_longitude": "126.284607037976",
        "orbital_period": "1238.960165683398",
        "perihelion_distance": ".92172545922126",
        "perihelion_argument": "289.0000368287624",
        "aphelion_distance": "3.593394292903872",
        "perihelion_time": "2455893.157998811676",
        "mean_anomaly": "17.24278231012614",
        "mean_motion": ".290566242540516",
        "equinox": "J2000",
        "orbit_class": {
            "orbit_class_type": "APO",
            "orbit_class_description": "Near-Earth asteroid orbits which cross the Earth’s orbit similar to that of 1862 Apollo",
            "orbit_class_range": "a (semi-major axis) > 1.0 AU; q (perihelion) < 1.017 AU"
        }
    },
    "is_sentry_object": false
}